STARLINK-5971           
1 56917U 23083AT  25166.80898448  .00000192  00000+0  29303-4 0  9995
2 56917  43.0041  79.0149 0001190 268.2068  91.8638 15.02534034111673
STARLINK-5951           
1 56918U 23083AU  25166.46661518  .00000288  00000+0  36458-4 0  9999
2 56918  43.0046  80.7426 0002293 258.7083 101.3501 15.02514466111620
STARLINK-5966           
1 56919U 23083AV  25166.47105103 -.00000959  00000+0 -55935-4 0  9992
2 56919  43.0038  80.7790 0000989 260.6471  99.4260 15.02529643111621
STARLINK-5960           
1 56920U 23083AW  25166.79233676  .00000060  00000+0  19520-4 0  9997
2 56920  43.0056  78.8831 0001001 265.6583  94.4145 15.02532520111672
STARLINK-5958           
1 56921U 23083AX  25167.06825392  .00020531  00000+0  15341-2 0  9991
2 56921  43.0045  77.5140 0001065 309.2619  50.8128 15.02445955110913
STARLINK-5937           
1 56922U 23083AY  25167.11139501  .00001524  00000+0  12784-3 0  9998
2 56922  43.0051  76.9842 0001131 262.4839  97.5875 15.02546412110929
STARLINK-5952           
1 56923U 23083AZ  25166.46327944  .00000241  00000+0  32949-4 0  9997
2 56923  43.0053  80.7160 0001064 264.3543  95.7178 15.02525857111620
STARLINK-5731           
1 56924U 23083BA  25166.78013127 -.00000454  00000+0 -18561-4 0  9990
2 56924  43.0058  78.7934 0001301 268.2630  91.8063 15.02529232111784
STARLINK-5733           
1 56925U 23083BB  25166.44995768 -.00000465  00000+0 -19351-4 0  9994
2 56925  43.0029  80.6219 0001100 267.8600  92.2116 15.02535088111623
STARLINK-5746           
1 56926U 23083BC  25166.45328760  .00000220  00000+0  31338-4 0  9994
2 56926  43.0043  80.6405 0001123 269.1080  90.9634 15.02532657111628
STARLINK-5808           
1 56927U 23083BD  25166.86083148  .00000357  00000+0  41498-4 0  9997
2 56927  43.0034 349.0847 0001093 261.7669  98.3050 15.02536890112716
OTTER PUP               
1 56933U 23084B   25166.40822140  .00020070  00000+0  40098-3 0  9996
2 56933  97.5694 299.7972 0005772 132.2546 227.9193 15.46835509111852
GEISAT PRECURSOR        
1 56934U 23084C   25167.15072634  .00005174  00000+0  19195-3 0  9997
2 56934  97.5782 294.1078 0006792 184.6985 175.4191 15.28037856111515
LAYAN-23                
1 56939U 23084H   25167.18498385  .00047712  00000+0  36870-3 0  9993
2 56939  97.5534 309.2496 0003194 132.5434 227.6098 15.71780691112541
AFRL-XVI                
1 56942U 23084L   25166.84131160  .00028018  00000+0  36103-3 0  9991
2 56942  97.5676 305.7704 0004257 148.1124 212.0390 15.58989612112255
NUSAT-40 (C SHOEMAKER)  
1 56943U 23084M   25167.12152576  .00016585  00000+0  42323-3 0  9995
2 56943  97.4535 293.4388 0007296 145.1326 215.0398 15.39553273111986
NUSAT-41 (C PAYNE-G)    
1 56944U 23084N   25167.12996431  .00010520  00000+0  36911-3 0  9991
2 56944  97.5106 294.0168 0005885 169.3149 190.8217 15.29601635111815
GREGOIRE                
1 56946U 23084Q   25167.10634323  .00006189  00000+0  21517-3 0  9992
2 56946  97.5793 295.4276 0008353 167.2311 192.9142 15.30073906111596
ICEYE-X30               
1 56947U 23084R   25166.60967539  .00016406  00000+0  38386-3 0  9990
2 56947  97.5640 298.0142 0006868 211.6249 148.4586 15.42196635111767
ICEYE-X23               
1 56949U 23084T   25167.19845218  .00031925  00000+0  63088-3 0  9996
2 56949  97.5616 299.5617 0005239 205.9446 154.1542 15.47063337111911
BLACKJACK ACES-3        
1 56950U 23084U   25166.81148322  .00005871  00000+0  26519-3 0  9997
2 56950  97.5768 294.1965 0008824 164.8473 195.3028 15.21327710111493
BLACKJACK ACES-4        
1 56952U 23084W   25166.73078753  .00035032  00000+0  53669-3 0  9998
2 56952  97.5730 301.7951 0007011 145.0091 215.1624 15.54241342111987
RUNNER-1 (TYVAK-1005)   
1 56953U 23084X   25166.81189689  .00006719  00000+0  24069-3 0  9991
2 56953  97.5788 293.7404 0009792 168.3458 191.8010 15.29048611111465
BLACKJACK ACES-2        
1 56955U 23084Z   25166.58934215  .00006111  00000+0  27932-3 0  9998
2 56955  97.5769 294.1272 0008365 170.4980 189.6415 15.20902072111479
BLACKJACK ACES-1        
1 56956U 23084AA  25166.63402840  .00007533  00000+0  34324-3 0  9991
2 56956  97.5741 293.9109 0007820 171.4206 188.7164 15.20932784111477
ION SCV-011             
1 56957U 23084AB  25166.85932088  .00004416  00000+0  18700-3 0  9995
2 56957  98.1117 317.1537 0007218 219.8677 140.2028 15.23749781109932
GHOST-3                 
1 56958U 23084AC  25166.82999594  .00010299  00000+0  31363-3 0  9994
2 56958  97.5781 296.0756 0009346 162.9773 197.1785 15.34147900111616
ORBITER SN3             
1 56960U 23084AE  25167.18914190  .00005519  00000+0  20751-3 0  9994
2 56960  97.5817 293.9724 0009528 178.6596 181.4670 15.27539533111493
ICEYE-X26               
1 56961U 23084AF  25166.61088976  .00021319  00000+0  40222-3 0  9997
2 56961  97.5624 299.8535 0002979 134.7476 225.4017 15.48494775111886
TOMORROW-R2             
1 56962U 23084AG  25166.32967298  .00018044  00000+0  39835-3 0  9998
2 56962  97.5736 298.8777 0008356 152.9621 207.2064 15.43901552111765
ICEYE-X25               
1 56963U 23084AH  25167.13407827  .00013963  00000+0  44549-3 0  9999
2 56963  97.5636 292.9215 0008922 169.9948 190.1473 15.32584380111472
AFR-1                   
1 56964U 23084AJ  25167.14629437  .00003799  00000+0  15946-3 0  9999
2 56964  97.5819 292.4776 0011661 178.0703 182.0581 15.24041632111397
DROID.001               
1 56965U 23084AK  25166.80433677  .00025323  00000+0  48013-3 0  9999
2 56965  97.5712 300.4045 0007683 146.7654 213.4079 15.48291067111919
NUSAT-42 (M WONENBURGER)
1 56966U 23084AL  25167.18636707  .00009401  00000+0  33173-3 0  9991
2 56966  97.5295 296.6785 0009431 116.9281 243.2923 15.29423052111875
NUSAT-43 (R DIENG-KUNTZ)
1 56968U 23084AN  25166.87029689  .00019799  00000+0  43425-3 0  9995
2 56968  97.4200 293.8176 0008651 122.1560 238.0529 15.44068559112102
LEMUR-2-EMBRIONOVIS     
1 56970U 23084AQ  25166.79163238  .00005231  00000+0  18381-3 0  9997
2 56970  97.5848 295.5884 0011197 166.9620 193.1911 15.29784050111548
AAC-HSI-SAT2            
1 56995U 23084BX  25167.19907805  .00002811  00000+0  14613-3 0  9990
2 56995  97.7770 300.9138 0013527  16.3153 343.8512 15.16880562110790
AAC-AIS-SAT2            
1 56996U 23084BY  25167.16939140  .00002903  00000+0  35825-3 0  9995
2 56996  98.1022 295.5220 0060027 204.9190 154.9122 14.82415701 99098
2023-085A               
1 57004U 23085A   25166.86193696  .00007042  00000+0  32854-3 0  9999
2 57004  97.4825 271.7613 0007606 231.2280 128.8276 15.20139081110733
2023-085B               
1 57005U 23085B   25166.91049787  .00026866  00000+0  65636-3 0  9996
2 57005  97.4729 277.1761 0004819 202.4885 157.6150 15.40796120111147
2023-085C               
1 57006U 23085C   25166.88221427  .00027728  00000+0  64788-3 0  9991
2 57006  97.4753 277.7137 0004407 206.6763 153.4258 15.42140019111169
2023-085D               
1 57007U 23085D   25166.90896920  .00065138  00000+0  83268-3 0  9992
2 57007  97.4762 282.0165 0004833 207.5522 152.5478 15.59017990111428
2023-085E               
1 57008U 23085E   25166.91376429  .00029821  00000+0  67659-3 0  9996
2 57008  97.4720 277.7784 0004973 215.1270 144.9650 15.43004359111189
2023-085F               
1 57009U 23085F   25166.87731415  .00026264  00000+0  62441-3 0  9994
2 57009  97.4743 277.7358 0004705 217.9701 142.1215 15.41626390111151
2023-085G               
1 57010U 23085G   25166.90983468  .00034022  00000+0  69738-3 0  9994
2 57010  97.4729 278.6663 0004597 214.1383 145.9571 15.45984493111230
2023-085H               
1 57011U 23085H   25166.88062097  .00022829  00000+0  59119-3 0  9992
2 57011  97.4712 276.6729 0004602 220.6933 139.3968 15.39051347111114
2023-085J               
1 57012U 23085J   25167.15008515  .00007146  00000+0  31034-3 0  9990
2 57012  97.4782 272.9384 0006660 244.3942 115.6606 15.22599616110862
2023-085K               
1 57013U 23085K   25166.86138962  .00030881  00000+0  67114-3 0  9998
2 57013  97.4718 278.0997 0004603 214.8509 145.2438 15.44280282 41400
2023-085L               
1 57014U 23085L   25166.87835874  .00007267  00000+0  33149-3 0  9999
2 57014  97.4822 272.0173 0004705 247.0843 112.9896 15.20918474110758
2023-085M               
1 57015U 23085M   25166.86362851  .00031316  00000+0  66570-3 0  9995
2 57015  97.4787 278.8646 0004376 220.1577 139.9348 15.44932690111213
2023-085N               
1 57016U 23085N   25166.89791727  .00063867  00000+0  81591-3 0  9993
2 57016  97.4755 281.9268 0004740 207.7851 152.3152 15.59040338111425
2023-085P               
1 57017U 23085P   25166.90236678  .00026028  00000+0  62556-3 0  9993
2 57017  97.4743 277.6127 0004197 220.3000 139.7936 15.41302658111169
2023-085Q               
1 57018U 23085Q   25166.86957311  .00070442  00000+0  85811-3 0  9991
2 57018  97.4702 281.7583 0005207 218.9487 141.1395 15.60269672111448
2023-085R               
1 57019U 23085R   25166.87131295  .00028501  00000+0  64443-3 0  9995
2 57019  97.4709 277.7352 0005024 221.4018 138.6849 15.43115411111189
2023-085S               
1 57020U 23085S   25166.87128779  .00073853  00000+0  87448-3 0  9990
2 57020  97.4761 282.3351 0004709 212.2158 147.8812 15.61004540111443
2023-085T               
1 57021U 23085T   25167.14828395  .00047547  00000+0  70375-3 0  9995
2 57021  97.4673 280.7728 0004927 218.3310 141.7595 15.55137825111419
2023-085U               
1 57022U 23085U   25166.86198698  .00072735  00000+0  87880-3 0  9996
2 57022  97.4768 282.3479 0005080 219.8712 140.2172 15.60477569111445
2023-085V               
1 57023U 23085V   25166.86020521  .00007620  00000+0  33643-3 0  9995
2 57023  97.4800 272.1044 0005915 281.9567  78.1006 15.22015690110774
2023-085W               
1 57024U 23085W   25166.91943351  .00064816  00000+0  84575-3 0  9997
2 57024  97.4764 281.8839 0004965 219.9919 140.0972 15.58471533111424
